STARLINK-36896          
1 68092U 26042Z   26068.75002315 -.01273284  53564-3 -19718-2 0  9997
2 68092  53.1604 194.9586 0000884  56.8583  16.0432 16.03554271  2061
STARLINK-36251          
1 68093U 26042AA  26068.75002315 -.01268866  53365-3 -19380-2 0  9992
2 68093  53.1604 194.9533 0000743  57.3068  18.1740 16.03783774  2058
STARLINK-36787          
1 68094U 26042AB  26068.75002315 -.01295743  55663-3 -19390-2 0  9991
2 68094  53.1601 194.9427 0000742  64.3199  16.1164 16.04127684  2051
STARLINK-36790          
1 68095U 26042AC  26068.75002315 -.01275566  53806-3 -19625-2 0  9991
2 68095  53.1605 194.9561 0000779  61.4448  12.6679 16.03663044  2056
STARLINK-36328          
1 68096U 26042AD  26068.75002315 -.01276285  54231-3 -18941-2 0  9994
2 68096  53.1605 194.9393 0000824  55.5360  26.4382 16.04260923  2052
STARLINK-36853          
1 68097U 26042AE  26068.75002315 -.01281131  54446-3 -19313-2 0  9993
2 68097  53.1603 194.9457 0000921  56.7454  22.2498 16.04002744  2065
GLOBAL-34               
1 68098U 26043A   26069.06159735  .00014164  00000+0  46263-3 0  9994
2 68098  42.0216  73.3521 0006820 292.4928  67.5187 15.31506726   629
ELECTRON R/B            
1 68099U 26043B   26069.04188032  .03343573  77539-5  13884-2 0  9996
2 68099  42.0132  71.3429 0156812 295.3298  63.1394 15.99587227   644
ELECTRON KICK STAGE R/B 
1 68100U 26043C   26068.48070052  .02869967  81258-5  18466-2 0  9991
2 68100  42.1203  75.0710 0150537  47.4572 313.8888 15.96328376   547
