[{"OBJECT_NAME":"STARLINK-36896","OBJECT_ID":"2026-042Z","EPOCH":"2026-03-09T18:00:02.000160","MEAN_MOTION":16.03554271,"ECCENTRICITY":8.841e-5,"INCLINATION":53.1604,"RA_OF_ASC_NODE":194.9586,"ARG_OF_PERICENTER":56.8583,"MEAN_ANOMALY":16.0432,"EPHEMERIS_TYPE":0,"CLASSIFICATION_TYPE":"U","NORAD_CAT_ID":68092,"ELEMENT_SET_NO":999,"REV_AT_EPOCH":206,"BSTAR":-0.0019717849,"MEAN_MOTION_DOT":-0.01273284,"MEAN_MOTION_DDOT":0.00053564121},{"OBJECT_NAME":"STARLINK-36251","OBJECT_ID":"2026-042AA","EPOCH":"2026-03-09T18:00:02.000160","MEAN_MOTION":16.03783774,"ECCENTRICITY":7.436e-5,"INCLINATION":53.1604,"RA_OF_ASC_NODE":194.9533,"ARG_OF_PERICENTER":57.3068,"MEAN_ANOMALY":18.174,"EPHEMERIS_TYPE":0,"CLASSIFICATION_TYPE":"U","NORAD_CAT_ID":68093,"ELEMENT_SET_NO":999,"REV_AT_EPOCH":205,"BSTAR":-0.0019379955,"MEAN_MOTION_DOT":-0.01268866,"MEAN_MOTION_DDOT":0.00053365254},{"OBJECT_NAME":"STARLINK-36787","OBJECT_ID":"2026-042AB","EPOCH":"2026-03-09T18:00:02.000160","MEAN_MOTION":16.04127684,"ECCENTRICITY":7.42e-5,"INCLINATION":53.1601,"RA_OF_ASC_NODE":194.9427,"ARG_OF_PERICENTER":64.3199,"MEAN_ANOMALY":16.1164,"EPHEMERIS_TYPE":0,"CLASSIFICATION_TYPE":"U","NORAD_CAT_ID":68094,"ELEMENT_SET_NO":999,"REV_AT_EPOCH":205,"BSTAR":-0.0019389814,"MEAN_MOTION_DOT":-0.01295743,"MEAN_MOTION_DDOT":0.00055663231},{"OBJECT_NAME":"STARLINK-36790","OBJECT_ID":"2026-042AC","EPOCH":"2026-03-09T18:00:02.000160","MEAN_MOTION":16.03663044,"ECCENTRICITY":7.79e-5,"INCLINATION":53.1605,"RA_OF_ASC_NODE":194.9561,"ARG_OF_PERICENTER":61.4448,"MEAN_ANOMALY":12.6679,"EPHEMERIS_TYPE":0,"CLASSIFICATION_TYPE":"U","NORAD_CAT_ID":68095,"ELEMENT_SET_NO":999,"REV_AT_EPOCH":205,"BSTAR":-0.0019625401,"MEAN_MOTION_DOT":-0.01275566,"MEAN_MOTION_DDOT":0.00053805848},{"OBJECT_NAME":"STARLINK-36328","OBJECT_ID":"2026-042AD","EPOCH":"2026-03-09T18:00:02.000160","MEAN_MOTION":16.04260923,"ECCENTRICITY":8.247e-5,"INCLINATION":53.1605,"RA_OF_ASC_NODE":194.9393,"ARG_OF_PERICENTER":55.536,"MEAN_ANOMALY":26.4382,"EPHEMERIS_TYPE":0,"CLASSIFICATION_TYPE":"U","NORAD_CAT_ID":68096,"ELEMENT_SET_NO":999,"REV_AT_EPOCH":205,"BSTAR":-0.0018941465,"MEAN_MOTION_DOT":-0.01276285,"MEAN_MOTION_DDOT":0.00054231182},{"OBJECT_NAME":"STARLINK-36853","OBJECT_ID":"2026-042AE","EPOCH":"2026-03-09T18:00:02.000160","MEAN_MOTION":16.04002744,"ECCENTRICITY":9.214e-5,"INCLINATION":53.1603,"RA_OF_ASC_NODE":194.9457,"ARG_OF_PERICENTER":56.7454,"MEAN_ANOMALY":22.2498,"EPHEMERIS_TYPE":0,"CLASSIFICATION_TYPE":"U","NORAD_CAT_ID":68097,"ELEMENT_SET_NO":999,"REV_AT_EPOCH":206,"BSTAR":-0.001931302,"MEAN_MOTION_DOT":-0.01281131,"MEAN_MOTION_DDOT":0.00054445568},{"OBJECT_NAME":"GLOBAL-34","OBJECT_ID":"2026-043A","EPOCH":"2026-03-10T01:28:42.011040","MEAN_MOTION":15.31506726,"ECCENTRICITY":0.000682,"INCLINATION":42.0216,"RA_OF_ASC_NODE":73.3521,"ARG_OF_PERICENTER":292.4928,"MEAN_ANOMALY":67.5187,"EPHEMERIS_TYPE":0,"CLASSIFICATION_TYPE":"U","NORAD_CAT_ID":68098,"ELEMENT_SET_NO":999,"REV_AT_EPOCH":62,"BSTAR":0.00046263,"MEAN_MOTION_DOT":0.00014164,"MEAN_MOTION_DDOT":0},{"OBJECT_NAME":"ELECTRON R/B","OBJECT_ID":"2026-043B","EPOCH":"2026-03-10T01:00:18.459648","MEAN_MOTION":15.99587227,"ECCENTRICITY":0.0156812,"INCLINATION":42.0132,"RA_OF_ASC_NODE":71.3429,"ARG_OF_PERICENTER":295.3298,"MEAN_ANOMALY":63.1394,"EPHEMERIS_TYPE":0,"CLASSIFICATION_TYPE":"U","NORAD_CAT_ID":68099,"ELEMENT_SET_NO":999,"REV_AT_EPOCH":64,"BSTAR":0.0013884,"MEAN_MOTION_DOT":0.03343573,"MEAN_MOTION_DDOT":7.7539e-6},{"OBJECT_NAME":"ELECTRON KICK STAGE R/B","OBJECT_ID":"2026-043C","EPOCH":"2026-03-09T11:32:12.524928","MEAN_MOTION":15.96328376,"ECCENTRICITY":0.01505376,"INCLINATION":42.1203,"RA_OF_ASC_NODE":75.071,"ARG_OF_PERICENTER":47.4572,"MEAN_ANOMALY":313.8888,"EPHEMERIS_TYPE":0,"CLASSIFICATION_TYPE":"U","NORAD_CAT_ID":68100,"ELEMENT_SET_NO":999,"REV_AT_EPOCH":54,"BSTAR":0.0018466455,"MEAN_MOTION_DOT":0.02869967,"MEAN_MOTION_DDOT":8.125792e-6}]
